NORAD_CAT_ID,OBJECT_NAME,OBJECT_TYPE,EPOCH,MEAN_MOTION,ECCENTRICITY,INCLINATION,RA_OF_ASC_NODE,ARG_OF_PERICENTER,MEAN_ANOMALY,BSTAR,MEAN_MOTION_DOT,MEAN_MOTION_DDOT,TLE_LINE0,TLE_LINE1,TLE_LINE2,SEMIMAJOR_AXIS,PERIOD,APOGEE,PERIGEE,DECAYED
51127.0,STARLINK-3370,PAYLOAD,2022-02-26 06:00:00,15.73224733,0.000361,53.2163,85.4042,9.0212,277.3013,5.124e-05,6.583e-05,0.0,0 STARLINK-3370,1 51127U 22005Z   22057.25001157  .00006583  00000-0  51240-4 0  9990,2 51127  53.2163  85.4042 0003610   9.0212 277.3013 15.73224733  7338,6727.825,91.532,352.11800000000005,347.261,0.0
51127.0,STARLINK-3370,PAYLOAD,2022-02-26 14:00:01,15.73224025,0.0003763,53.2157,83.7555,7.3207,7.9485,-0.0002286,-0.00032629,0.0,0 STARLINK-3370,1 51127U 22005Z   22057.58334491 -.00032629  00000-0 -22860-3 0  9993,2 51127  53.2157  83.7555 0003763   7.3207   7.9485 15.73224025  3706,6727.8269999999975,91.532,352.223,347.16,0.0
51127.0,STARLINK-3370,PAYLOAD,2022-02-26 22:00:00,15.73204705,0.0003601,53.2172,82.0842,10.0434,93.9584,-2.2531e-06,-9.4e-06,0.0,0 STARLINK-3370,1 51127U 22005Z   22057.91667824 -.00000940  00000-0 -22531-5 0  9997,2 51127  53.2172  82.0842 0003601  10.0434  93.9584 15.73204705  7430,6727.882,91.533,352.1690000000001,347.324,0.0
51127.0,STARLINK-3370,PAYLOAD,2022-02-27 06:00:00,15.73251354,0.0003581,53.2161,80.4557,7.1493,186.0088,-0.00067688,-0.00094804,0.0,0 STARLINK-3370,1 51127U 22005Z   22058.25001157 -.00094804  00000-0 -67688-3 0  9998,2 51127  53.2161  80.4557 0003581   7.1493 186.0088 15.73251354  7493,6727.749,91.53,352.023,347.205,0.0
51127.0,STARLINK-3370,PAYLOAD,2022-02-27 14:00:01,15.73187962,0.0003757,53.2159,78.8067,5.3089,276.8166,0.00036358,0.00050702,0.0,0 STARLINK-3370,1 51127U 22005Z   22058.58334491  .00050702  00000-0  36358-3 0  9991,2 51127  53.2159  78.8067 0003757   5.3089 276.8166 15.73187962  7547,6727.929,91.534,352.32199999999995,347.267,0.0
51127.0,STARLINK-3370,PAYLOAD,2022-02-27 22:00:00,15.73232064,0.0003568,53.2161,77.1551,8.3282,2.7472,7.0911e-05,9.356e-05,0.0,0 STARLINK-3370,1 51127U 22005Z   22058.91667824  .00009356  00000-0  70911-4 0  9990,2 51127  53.2161  77.1551 0003568   8.3282   2.7472 15.73232064  3702,6727.804,91.531,352.069,347.26800000000014,0.0
51127.0,STARLINK-3370,PAYLOAD,2022-02-28 06:00:00,15.73228833,0.0003735,53.2161,75.5069,10.3331,89.7067,-0.00075977,-0.00106099,0.0,0 STARLINK-3370,1 51127U 22005Z   22059.25001157 -.00106099  00000-0 -75977-3 0  9999,2 51127  53.2161  75.5069 0003735  10.3331  89.7067 15.73228833  7643,6727.813,91.532,352.191,347.165,0.0
51127.0,STARLINK-3370,PAYLOAD,2022-02-28 14:00:01,15.73185281,0.0003797,53.2154,73.8577,9.1451,179.8249,0.00014864,0.00020281,0.0,0 STARLINK-3370,1 51127U 22005Z   22059.58334491  .00020281  00000-0  14864-3 0  9999,2 51127  53.2154  73.8577 0003797   9.1451 179.8249 15.73185281  7694,6727.937,91.534,352.357,347.24800000000016,0.0
51127.0,STARLINK-3370,PAYLOAD,2022-02-28 22:00:00,15.72716934,0.0003787,53.2164,72.1922,16.8762,261.1376,0.0035855,0.00524395,0.0,0 STARLINK-3370,1 51127U 22005Z   22059.91667824  .00524395  00000-0  35855-2 0  9992,2 51127  53.2164  72.1922 0003787  16.8762 261.1376 15.72716934  7757,6729.273,91.561,353.686,348.589,0.0
51127.0,STARLINK-3370,PAYLOAD,2022-03-01 06:00:00,15.73246841,0.0003668,53.2157,70.5582,9.1194,357.6999,-0.00064749,-0.00090742,0.0,0 STARLINK-3370,1 51127U 22005Z   22060.25001157 -.00090742  00000-0 -64749-3 0  9993,2 51127  53.2157  70.5582 0003668   9.1194 357.6999 15.73246841  7809,6727.762,91.53,352.094,347.159,0.0
51127.0,STARLINK-3370,PAYLOAD,2022-03-01 14:00:01,15.73186364,0.0003801,53.2157,68.9087,7.9934,87.7585,0.00025436,0.00035215,0.0,0 STARLINK-3370,1 51127U 22005Z   22060.58334491  .00035215  00000-0  25436-3 0  9991,2 51127  53.2157  68.9087 0003801   7.9934  87.7585 15.73186364  3695,6727.934,91.534,352.356,347.242,0.0
51127.0,STARLINK-3370,PAYLOAD,2022-03-01 22:00:01,15.73221062,0.0003595,53.2159,67.2571,11.4372,173.3041,-8.7805e-05,-0.00012944,0.0,0 STARLINK-3370,1 51127U 22005Z   22060.91668981 -.00012944  00000-0 -87805-4 0  9997,2 51127  53.2159  67.2571 0003595  11.4372 173.3041 15.73221062  7905,6727.835,91.532,352.119,347.281,0.0
51127.0,STARLINK-3370,PAYLOAD,2022-03-02 14:00:01,15.73159802,0.0003866,53.2154,63.9597,11.9604,350.5752,0.00019094,0.00026221,0.0,0 STARLINK-3370,1 51127U 22005Z   22061.58334491  .00026221  00000-0  19094-3 0  9992,2 51127  53.2154  63.9597 0003866  11.9604 350.5752 15.73159802  8018,6728.01,91.536,352.476,347.274,0.0
51127.0,STARLINK-3370,PAYLOAD,2022-03-02 22:00:00,15.73157535,0.0003561,53.2156,62.3084,14.0215,77.4036,0.00058615,0.00082321,0.0,0 STARLINK-3370,1 51127U 22005Z   22061.91667824  .00082321  00000-0  58615-3 0  9993,2 51127  53.2156  62.3084 0003561  14.0215  77.4036 15.73157535  3698,6728.016,91.536,352.277,347.485,0.0
51127.0,STARLINK-3370,PAYLOAD,2022-03-03 14:00:01,15.73192504,0.000377,53.216,59.0108,11.3556,257.9013,0.00011446,0.0001547,0.0,0 STARLINK-3370,1 51127U 22005Z   22062.58334491  .00015470  00000-0  11446-3 0  9990,2 51127  53.2160  59.0108 0003770  11.3556 257.9013 15.73192504  8176,6727.917,91.534,352.3180000000001,347.245,0.0
51127.0,STARLINK-3370,PAYLOAD,2022-03-03 22:00:00,15.73192169,0.0003589,53.2164,57.3594,13.7275,344.45300000000015,0.00053106,0.00074568,0.0,0 STARLINK-3370,1 51127U 22005Z   22062.91667824  .00074568  00000-0  53106-3 0  9998,2 51127  53.2164  57.3594 0003589  13.7275 344.4530 15.73192169  3697,6727.918000000002,91.534,352.19699999999995,347.36800000000005,0.0
51127.0,STARLINK-3370,PAYLOAD,2022-03-04 14:00:01,15.73241153,0.0003724,53.2161,54.0618,11.6722,164.4769,-4.0465e-05,-6.312e-05,0.0,0 STARLINK-3370,1 51127U 22005Z   22063.58335648 -.00006312  00000-0 -40465-4 0  9997,2 51127  53.2161  54.0618 0003724  11.6722 164.4769 15.73241153  8327,6727.778,91.531,352.148,347.13699999999994,0.0
51127.0,STARLINK-3370,PAYLOAD,2022-03-04 22:00:00,15.73218513,0.0003436,53.2164,52.4106,11.421,253.6435,0.00012127,0.00016447,0.0,0 STARLINK-3370,1 51127U 22005Z   22063.91667824  .00016447  00000-0  12127-3 0  9999,2 51127  53.2164  52.4106 0003436  11.4210 253.6435 15.73218513  3694,6727.842,91.532,352.019,347.396,0.0
51127.0,STARLINK-3370,PAYLOAD,2022-03-05 06:00:00,15.73231473,0.0003609,53.2165,50.7631,8.4808,345.5424,-0.00042501,-0.00059952,0.0,0 STARLINK-3370,1 51127U 22005Z   22064.25001157 -.00059952  00000-0 -42501-3 0  9997,2 51127  53.2165  50.7631 0003609   8.4808 345.5424 15.73231473  3745,6727.805,91.531,352.099,347.242,0.0
51127.0,STARLINK-3370,PAYLOAD,2022-03-05 14:00:01,15.73250387,0.0003583,53.2168,49.113,5.0607,77.9163,-0.00058127,-0.00081623,0.0,0 STARLINK-3370,1 51127U 22005Z   22064.58334491 -.00081623  00000-0 -58127-3 0  9994,2 51127  53.2168  49.1130 0003583   5.0607  77.9163 15.73250387  3678,6727.752,91.53,352.027,347.206,0.0
51127.0,STARLINK-3370,PAYLOAD,2022-03-05 22:00:01,15.73198956,0.0003356,53.2172,47.462,5.6993,166.2852,0.00028972,0.00040241,0.0,0 STARLINK-3370,1 51127U 22005Z   22064.91668981  .00040241  00000-0  28972-3 0  9999,2 51127  53.2172  47.4620 0003356   5.6993 166.2852 15.73198956  8530,6727.898,91.533,352.021,347.505,0.0
51127.0,STARLINK-3370,PAYLOAD,2022-03-06 14:00:01,15.73194415,0.0003583,53.2169,44.1643,8.4166,341.4192,0.00029454,0.00040917,0.0,0 STARLINK-3370,1 51127U 22005Z   22065.58334491  .00040917  00000-0  29454-3 0  9995,2 51127  53.2169  44.1643 0003583   8.4166 341.4192 15.73194415  8642,6727.911,91.534,352.18699999999984,347.365,0.0
51127.0,STARLINK-3370,PAYLOAD,2022-03-06 22:00:00,15.73242752,0.0003376,53.2172,42.5137,11.7743,66.9866,-0.00042299,-0.00059697,0.0,0 STARLINK-3370,1 51127U 22005Z   22065.91667824 -.00059697  00000-0 -42299-3 0  9990,2 51127  53.2172  42.5137 0003376  11.7743  66.9866 15.73242752  3701,6727.773,91.531,351.91,347.367,0.0
51127.0,STARLINK-3370,PAYLOAD,2022-03-07 06:00:00,15.73178164,0.0003583,53.2173,40.8664,9.7118,157.9988,-0.00060631,-0.00084819,0.0,0 STARLINK-3370,1 51127U 22005Z   22066.25001157 -.00084819  00000-0 -60631-3 0  9993,2 51127  53.2173  40.8664 0003583   9.7118 157.9988 15.73178164  8741,6727.956999999999,91.534,352.233,347.412,0.0
51127.0,STARLINK-3370,PAYLOAD,2022-03-07 12:00:00,15.73122338,0.000356,53.2173,39.6291,6.916,137.4488,0.00021118,0.00029027,0.0,0 STARLINK-3370,1 51127U 22005Z   22066.50001157  .00029027  00000-0  21118-3 0  9996,2 51127  53.2173  39.6291 0003560   6.9160 137.4488 15.73122338  8788,6728.1169999999975,91.538,352.37699999999984,347.586,0.0
51127.0,STARLINK-3370,PAYLOAD,2022-03-07 22:00:00,15.73140717,0.000337,53.2179,37.5657,9.8908,335.5076,0.00055258,0.00077467,0.0,0 STARLINK-3370,1 51127U 22005Z   22066.91667824  .00077467  00000-0  55258-3 0  9993,2 51127  53.2179  37.5657 0003370   9.8908 335.5076 15.73140717  3698,6728.064,91.537,352.19699999999995,347.662,0.0
51127.0,STARLINK-3370,PAYLOAD,2022-03-08 14:00:01,15.73263788,0.0003481999999999,53.2174,34.2679,8.2717,154.9557,-0.00068129,-0.00095458,0.0,0 STARLINK-3370,1 51127U 22005Z   22067.58334491 -.00095458  00000-0 -68129-3 0  9991,2 51127  53.2174  34.2679 0003482   8.2717 154.9557 15.73263788  8951,6727.7130000000025,91.529,351.921,347.236,0.0
51127.0,STARLINK-3370,PAYLOAD,2022-03-08 20:00:01,15.73182733,0.0003245,53.2174,33.0298,8.0331,131.929,0.00058504,0.00082248,0.0,0 STARLINK-3370,1 51127U 22005Z   22067.83334491  .00082248  00000-0  58504-3 0  9996,2 51127  53.2174  33.0298 0003245   8.0331 131.9290 15.73182733  8995,6727.944,91.534,351.99300000000005,347.626,0.0
51127.0,STARLINK-3370,PAYLOAD,2022-03-08 22:00:00,15.732317300000002,0.0003224,53.2176,32.6177,7.3091,244.8722,-1.3499e-05,-2.521e-05,0.0,0 STARLINK-3370,1 51127U 22005Z   22067.91667824 -.00002521  00000-0 -13499-4 0  9997,2 51127  53.2176  32.6177 0003224   7.3091 244.8722 15.73231730  3700,6727.805,91.531,351.839,347.501,0.0
